ADRAS-J                 
1 58992U 24034A   24115.52056815  .00008648  00000+0  81405-3 0  9997
2 58992  98.2086  86.1461 0043108 223.4859 136.2957 14.93412578  9852
